[{"OBJECT_NAME":"STARLINK-30494","OBJECT_ID":"2023-151G","EPOCH":"2026-03-09T08:39:06.366240","MEAN_MOTION":15.28417441,"ECCENTRICITY":0.00011553,"INCLINATION":43.0027,"RA_OF_ASC_NODE":192.4566,"ARG_OF_PERICENTER":241.5536,"MEAN_ANOMALY":118.52,"EPHEMERIS_TYPE":0,"CLASSIFICATION_TYPE":"U","NORAD_CAT_ID":57970,"ELEMENT_SET_NO":999,"REV_AT_EPOCH":13740,"BSTAR":-3.569111e-5,"MEAN_MOTION_DOT":-1.272e-5,"MEAN_MOTION_DDOT":0},{"OBJECT_NAME":"STARLINK-34254","OBJECT_ID":"2025-111P","EPOCH":"2026-03-09T01:54:09.772992","MEAN_MOTION":15.27589243,"ECCENTRICITY":2.767e-5,"INCLINATION":43.001,"RA_OF_ASC_NODE":81.0062,"ARG_OF_PERICENTER":242.1238,"MEAN_ANOMALY":117.9586,"EPHEMERIS_TYPE":0,"CLASSIFICATION_TYPE":"U","NORAD_CAT_ID":64136,"ELEMENT_SET_NO":999,"REV_AT_EPOCH":4537,"BSTAR":0.001200386,"MEAN_MOTION_DOT":0.00032927,"MEAN_MOTION_DDOT":0}]
